{
  "type": "FeatureCollection",
  "features": [
    {
      "type": "Feature",
      "properties": {
        "OBJECT_NAME": "LEGION 2",
        "OBJECT_ID": "2024-081B",
        "EPOCH": "2025-11-30T03:52:15.214944",
        "MEAN_MOTION": 15.16298348,
        "ECCENTRICITY": 0.0006511,
        "INCLINATION": 97.5231,
        "RA_OF_ASC_NODE": 48.9944,
        "ARG_OF_PERICENTER": 343.5885,
        "MEAN_ANOMALY": 16.5136,
        "EPHEMERIS_TYPE": 0,
        "CLASSIFICATION_TYPE": "U",
        "NORAD_CAT_ID": 59626,
        "ELEMENT_SET_NO": 999,
        "REV_AT_EPOCH": 8737,
        "BSTAR": 0.00032412,
        "MEAN_MOTION_DOT": 6.214e-05,
        "MEAN_MOTION_DDOT": 0,
        "norad_id": 59626,
        "name": "LEGION 2",
        "group": "resource",
        "longitude_deg": NaN,
        "latitude_deg": NaN,
        "alt_km": NaN,
        "orbit_class": "HEO",
        "timestamp": "2025-11-30T09:33:02.554822+00:00"
      },
      "geometry": {
        "type": "Point",
        "coordinates": [
          NaN,
          NaN
        ]
      }
    },
    {
      "type": "Feature",
      "properties": {
        "OBJECT_NAME": "ALOS-4 (DAICHI-4)",
        "OBJECT_ID": "2024-123A",
        "EPOCH": "2025-11-30T06:00:25.405920",
        "MEAN_MOTION": 14.7946823,
        "ECCENTRICITY": 0.0001282,
        "INCLINATION": 97.9232,
        "RA_OF_ASC_NODE": 69.2755,
        "ARG_OF_PERICENTER": 104.6665,
        "MEAN_ANOMALY": 255.4689,
        "EPHEMERIS_TYPE": 0,
        "CLASSIFICATION_TYPE": "U",
        "NORAD_CAT_ID": 60182,
        "ELEMENT_SET_NO": 999,
        "REV_AT_EPOCH": 7646,
        "BSTAR": -8.7883e-06,
        "MEAN_MOTION_DOT": -1.17e-06,
        "MEAN_MOTION_DDOT": 0,
        "norad_id": 60182,
        "name": "ALOS-4 (DAICHI-4)",
        "group": "resource",
        "longitude_deg": NaN,
        "latitude_deg": NaN,
        "alt_km": NaN,
        "orbit_class": "HEO",
        "timestamp": "2025-11-30T09:33:02.557850+00:00"
      },
      "geometry": {
        "type": "Point",
        "coordinates": [
          NaN,
          NaN
        ]
      }
    },
    {
      "type": "Feature",
      "properties": {
        "OBJECT_NAME": "LEGION 3",
        "OBJECT_ID": "2024-146A",
        "EPOCH": "2025-11-30T04:01:04.116864",
        "MEAN_MOTION": 15.15557332,
        "ECCENTRICITY": 0.001348,
        "INCLINATION": 45.0024,
        "RA_OF_ASC_NODE": 17.5205,
        "ARG_OF_PERICENTER": 126.6479,
        "MEAN_ANOMALY": 233.5641,
        "EPHEMERIS_TYPE": 0,
        "CLASSIFICATION_TYPE": "U",
        "NORAD_CAT_ID": 60452,
        "ELEMENT_SET_NO": 999,
        "REV_AT_EPOCH": 7182,
        "BSTAR": 0.00028125,
        "MEAN_MOTION_DOT": 5.174e-05,
        "MEAN_MOTION_DDOT": 0,
        "norad_id": 60452,
        "name": "LEGION 3",
        "group": "resource",
        "longitude_deg": NaN,
        "latitude_deg": NaN,
        "alt_km": NaN,
        "orbit_class": "HEO",
        "timestamp": "2025-11-30T09:33:02.559347+00:00"
      },
      "geometry": {
        "type": "Point",
        "coordinates": [
          NaN,
          NaN
        ]
      }
    },
    {
      "type": "Feature",
      "properties": {
        "OBJECT_NAME": "LEGION 4",
        "OBJECT_ID": "2024-146B",
        "EPOCH": "2025-11-30T02:27:38.014848",
        "MEAN_MOTION": 15.15607257,
        "ECCENTRICITY": 0.0009806,
        "INCLINATION": 45.0368,
        "RA_OF_ASC_NODE": 109.5807,
        "ARG_OF_PERICENTER": 245.7291,
        "MEAN_ANOMALY": 114.2564,
        "EPHEMERIS_TYPE": 0,
        "CLASSIFICATION_TYPE": "U",
        "NORAD_CAT_ID": 60453,
        "ELEMENT_SET_NO": 999,
        "REV_AT_EPOCH": 7066,
        "BSTAR": 0.00038077,
        "MEAN_MOTION_DOT": 7.105e-05,
        "MEAN_MOTION_DDOT": 0,
        "norad_id": 60453,
        "name": "LEGION 4",
        "group": "resource",
        "longitude_deg": NaN,
        "latitude_deg": NaN,
        "alt_km": NaN,
        "orbit_class": "HEO",
        "timestamp": "2025-11-30T09:33:02.559356+00:00"
      },
      "geometry": {
        "type": "Point",
        "coordinates": [
          NaN,
          NaN
        ]
      }
    },
    {
      "type": "Feature",
      "properties": {
        "OBJECT_NAME": "SENTINEL-2C",
        "OBJECT_ID": "2024-157A",
        "EPOCH": "2025-11-30T03:38:24.112608",
        "MEAN_MOTION": 14.30822184,
        "ECCENTRICITY": 0.0001156,
        "INCLINATION": 98.5617,
        "RA_OF_ASC_NODE": 46.8189,
        "ARG_OF_PERICENTER": 102.7597,
        "MEAN_ANOMALY": 257.3715,
        "EPHEMERIS_TYPE": 0,
        "CLASSIFICATION_TYPE": "U",
        "NORAD_CAT_ID": 60989,
        "ELEMENT_SET_NO": 999,
        "REV_AT_EPOCH": 6452,
        "BSTAR": 8.0598e-05,
        "MEAN_MOTION_DOT": 1.68e-06,
        "MEAN_MOTION_DDOT": 0,
        "norad_id": 60989,
        "name": "SENTINEL-2C",
        "group": "resource",
        "longitude_deg": NaN,
        "latitude_deg": NaN,
        "alt_km": NaN,
        "orbit_class": "HEO",
        "timestamp": "2025-11-30T09:33:02.560903+00:00"
      },
      "geometry": {
        "type": "Point",
        "coordinates": [
          NaN,
          NaN
        ]
      }
    },
    {
      "type": "Feature",
      "properties": {
        "OBJECT_NAME": "IONOSFERA-M 1",
        "OBJECT_ID": "2024-199A",
        "EPOCH": "2025-11-30T04:02:51.647712",
        "MEAN_MOTION": 14.22709561,
        "ECCENTRICITY": 0.0001494,
        "INCLINATION": 98.7411,
        "RA_OF_ASC_NODE": 204.1125,
        "ARG_OF_PERICENTER": 39.7557,
        "MEAN_ANOMALY": 320.373,
        "EPHEMERIS_TYPE": 0,
        "CLASSIFICATION_TYPE": "U",
        "NORAD_CAT_ID": 61735,
        "ELEMENT_SET_NO": 999,
        "REV_AT_EPOCH": 9940,
        "BSTAR": 5.378e-05,
        "MEAN_MOTION_DOT": 7.6e-07,
        "MEAN_MOTION_DDOT": 0,
        "norad_id": 61735,
        "name": "IONOSFERA-M 1",
        "group": "resource",
        "longitude_deg": NaN,
        "latitude_deg": NaN,
        "alt_km": NaN,
        "orbit_class": "HEO",
        "timestamp": "2025-11-30T09:33:02.563194+00:00"
      },
      "geometry": {
        "type": "Point",
        "coordinates": [
          NaN,
          NaN
        ]
      }
    },
    {
      "type": "Feature",
      "properties": {
        "OBJECT_NAME": "IONOSFERA-M 2",
        "OBJECT_ID": "2024-199B",
        "EPOCH": "2025-11-30T04:52:46.517088",
        "MEAN_MOTION": 14.22711644,
        "ECCENTRICITY": 0.000128,
        "INCLINATION": 98.7409,
        "RA_OF_ASC_NODE": 204.0595,
        "ARG_OF_PERICENTER": 124.8759,
        "MEAN_ANOMALY": 235.2539,
        "EPHEMERIS_TYPE": 0,
        "CLASSIFICATION_TYPE": "U",
        "NORAD_CAT_ID": 61736,
        "ELEMENT_SET_NO": 999,
        "REV_AT_EPOCH": 10253,
        "BSTAR": 5.0834e-05,
        "MEAN_MOTION_DOT": 7e-07,
        "MEAN_MOTION_DDOT": 0,
        "norad_id": 61736,
        "name": "IONOSFERA-M 2",
        "group": "resource",
        "longitude_deg": NaN,
        "latitude_deg": NaN,
        "alt_km": NaN,
        "orbit_class": "HEO",
        "timestamp": "2025-11-30T09:33:02.563200+00:00"
      },
      "geometry": {
        "type": "Point",
        "coordinates": [
          NaN,
          NaN
        ]
      }
    },
    {
      "type": "Feature",
      "properties": {
        "OBJECT_NAME": "BIOMASS",
        "OBJECT_ID": "2025-090A",
        "EPOCH": "2025-11-30T01:43:48.976896",
        "MEAN_MOTION": 14.67532189,
        "ECCENTRICITY": 0.0001444,
        "INCLINATION": 98.0716,
        "RA_OF_ASC_NODE": 159.266,
        "ARG_OF_PERICENTER": 95.39,
        "MEAN_ANOMALY": 264.7469,
        "EPHEMERIS_TYPE": 0,
        "CLASSIFICATION_TYPE": "U",
        "NORAD_CAT_ID": 63772,
        "ELEMENT_SET_NO": 999,
        "REV_AT_EPOCH": 3148,
        "BSTAR": 0.00029406,
        "MEAN_MOTION_DOT": 1.62e-05,
        "MEAN_MOTION_DDOT": 0,
        "norad_id": 63772,
        "name": "BIOMASS",
        "group": "resource",
        "longitude_deg": NaN,
        "latitude_deg": NaN,
        "alt_km": NaN,
        "orbit_class": "HEO",
        "timestamp": "2025-11-30T09:33:02.575612+00:00"
      },
      "geometry": {
        "type": "Point",
        "coordinates": [
          NaN,
          NaN
        ]
      }
    }
  ]
}