LEGION 2                
1 59626U 24081B   25334.16128721  .00006214  00000+0  32412-3 0  9995
2 59626  97.5231  48.9944 0006511 343.5885  16.5136 15.16298348 87378
ALOS-4 (DAICHI-4)       
1 60182U 24123A   25334.25029405 -.00000117  00000+0 -87883-5 0  9992
2 60182  97.9232  69.2755 0001282 104.6665 255.4689 14.79468230 76462
LEGION 3                
1 60452U 24146A   25334.16740876  .00005174  00000+0  28125-3 0  9997
2 60452  45.0024  17.5205 0013480 126.6479 233.5641 15.15557332 71824
LEGION 4                
1 60453U 24146B   25334.10252332  .00007105  00000+0  38077-3 0  9990
2 60453  45.0368 109.5807 0009806 245.7291 114.2564 15.15607257 70660
SENTINEL-2C             
1 60989U 24157A   25334.15166797  .00000168  00000+0  80598-4 0  9998
2 60989  98.5617  46.8189 0001156 102.7597 257.3715 14.30822184 64520
IONOSFERA-M 1           
1 61735U 24199A   25334.16865333  .00000076  00000+0  53780-4 0  9998
2 61735  98.7411 204.1125 0001494  39.7557 320.3730 14.22709561 99400
IONOSFERA-M 2           
1 61736U 24199B   25334.20331617  .00000070  00000+0  50834-4 0  9998
2 61736  98.7409 204.0595 0001280 124.8759 235.2539 14.22711644102536
BIOMASS                 
1 63772U 25090A   25334.07209464  .00001620  00000+0  29406-3 0  9992
2 63772  98.0716 159.2660 0001444  95.3900 264.7469 14.67532189 31486
